*******************************************************************************
 Revised: Sep 28, 2012             Phobos / (Mars)                          401

 SATELLITE PHYSICAL PROPERTIES:
  Radius (km)             = 13.1 x11.1 x9.3 Density (g cm^-3)   =  1.90 +- 0.08
  Mass (10^20 kg )        =  1.08 (10^-4)   Geometric Albedo    =  0.06 
                                 (+- 0.1)   V(1,0)              = +11.8

 SATELLITE ORBITAL DATA:
  Semi-major axis, a (km) = 9.3772(10^3)    Orbital period      = 0.319 d
  Eccentricity, e         = 0.0151          Rotational period   = Synchronous
  Inclination, i  (deg)   = 1.082
*******************************************************************************
 
 
*******************************************************************************
Ephemeris / WWW_USER Sat Aug  5 11:28:41 2017 Pasadena, USA      / Horizons    
*******************************************************************************
Target body name: Phobos (401)                    {source: mar097}
Center body name: Solar System Barycenter (0)     {source: DE431mx}
Center-site name: BODY CENTER
*******************************************************************************
Start time      : A.D. 2017-Jul-10 00:00:00.0000 TDB
Stop  time      : A.D. 2020-Aug-13 00:00:00.0000 TDB
Step-size       : 1440 minutes
*******************************************************************************
Center geodetic : 0.00000000,0.00000000,0.0000000 {E-lon(deg),Lat(deg),Alt(km)}
Center cylindric: 0.00000000,0.00000000,0.0000000 {E-lon(deg),Dxy(km),Dz(km)}
Center radii    : (undefined)                                                  
Output units    : KM-S                                                         
Output type     : GEOMETRIC cartesian states
Output format   : 3 (position, velocity, LT, range, range-rate)
Reference frame : ICRF/J2000.0                                                 
Coordinate systm: Ecliptic and Mean Equinox of Reference Epoch                 
*******************************************************************************
            JDTDB,            Calendar Date (TDB),                      X,                      Y,                      Z,                     VX,                     VY,                     VZ,                     LT,                     RG,                     RR,
**************************************************************************************************************************************************************************************************************************************************************************
$$SOE
2457998.500000000, A.D. 2017-Sep-02 00:00:00.0000, -1.908662553736300E+08,  1.589576162247026E+08,  7.984827954154454E+06, -1.278184076697508E+01, -1.561168431885115E+01, -7.624694659473050E-01,  8.289669009838379E+02,  2.485180248465873E+08, -1.933953407933456E-01,
2457999.500000000, A.D. 2017-Sep-03 00:00:00.0000, -1.921114964866866E+08,  1.575248942736526E+08,  7.983577507712983E+06, -1.388674939946462E+01, -1.460523659475730E+01, -1.008290296741308E-01,  8.291242486627232E+02,  2.485651964940009E+08,  1.473701414475090E+00,
2458000.500000000, A.D. 2017-Sep-04 00:00:00.0000, -1.933500182752262E+08,  1.560835617838357E+08,  7.984635112852365E+06, -1.535744857111620E+01, -1.508635714234305E+01,  6.381360908764444E-01,  8.292946954988943E+02,  2.486162951699751E+08,  2.492700199641164E+00,
2458001.500000000, A.D. 2017-Sep-05 00:00:00.0000, -1.945808593976465E+08,  1.546283073592452E+08,  7.987225445156910E+06, -1.602390061338809E+01, -1.677168975795499E+01,  9.164166816544235E-01,  8.294647887998050E+02,  2.486672878587444E+08,  2.138946319182831E+00,
2458002.500000000, A.D. 2017-Sep-06 00:00:00.0000, -1.957996817994247E+08,  1.531567242389205E+08,  7.989156914384693E+06, -1.536903024102110E+01, -1.852423198425707E+01,  5.621800794473382E-01,  8.296183935348276E+02,  2.487133373998173E+08,  7.101826050925366E-01,
2458003.500000000, A.D. 2017-Sep-07 00:00:00.0000, -1.970019777515703E+08,  1.516708055351057E+08,  7.988443531264886E+06, -1.379194603048107E+01, -1.927351940024292E+01, -1.653387135915212E-01,  8.297478288663675E+02,  2.487521411360117E+08, -8.342053496023436E-01,
2458004.500000000, A.D. 2017-Sep-08 00:00:00.0000, -1.981858887333066E+08,  1.501753793489709E+08,  7.984541302866161E+06, -1.222364952866468E+01, -1.863363904305928E+01, -7.986715894026908E-01,  8.298578882941342E+02,  2.487851361223879E+08, -1.536008134526862E+00,
2458005.500000000, A.D. 2017-Sep-09 00:00:00.0000, -1.993532040885052E+08,  1.486751384999127E+08,  7.978630472546667E+06, -1.159403266441815E+01, -1.706068696077723E+01, -9.251559550524817E-01,  8.299625381666909E+02,  2.488165093649111E+08, -9.347205895908298E-01,
2458006.500000000, A.D. 2017-Sep-10 00:00:00.0000, -2.005083420818229E+08,  1.471717206863185E+08,  7.972943692591138E+06, -1.228948866135225E+01, -1.566722749657134E+01, -4.326873055237614E-01,  8.300766364822923E+02,  2.488507151793989E+08,  6.225514595430011E-01,
2458007.500000000, A.D. 2017-Sep-11 00:00:00.0000, -2.016554644503964E+08,  1.456623396463404E+08,  7.969306704356536E+06, -1.376175676969900E+01, -1.555259925627682E+01,  3.474572502604696E-01,  8.302058088463516E+02,  2.488894400799259E+08,  2.059044574270526E+00,
2458008.500000000, A.D. 2017-Sep-12 00:00:00.0000, -2.027952670232772E+08,  1.441416080334347E+08,  7.967731007747635E+06, -1.483269700230012E+01, -1.688883115577246E+01,  8.442628016826363E-01,  8.303415264911276E+02,  2.489301272062473E+08,  2.331354320489387E+00,
2458009.500000000, A.D. 2017-Sep-13 00:00:00.0000, -2.039243616766517E+08,  1.426056689696676E+08,  7.966385682589225E+06, -1.465803963418107E+01, -1.875832821723992E+01,  7.151043892572799E-01,  8.304673231927583E+02,  2.489678401086374E+08,  1.284439905523302E+00,
2458010.500000000, A.D. 2017-Sep-14 00:00:00.0000, -2.050378925848207E+08,  1.410549394721883E+08,  7.963014744648986E+06, -1.332193305772266E+01, -1.995832223382294E+01,  7.656816224218854E-02,  8.305708658657560E+02,  2.489988814210833E+08, -3.337731537892439E-01,
2458011.500000000, A.D. 2017-Sep-15 00:00:00.0000, -2.061328075317860E+08,  1.394935226536797E+08,  7.956453354094267E+06, -1.162531987830691E+01, -1.981299895259846E+01, -6.476896328776336E-01,  8.306515031369166E+02,  2.490230558668109E+08, -1.496160684062659E+00,
2458012.500000000, A.D. 2017-Sep-16 00:00:00.0000, -2.072095732060902E+08,  1.379265293397281E+08,  7.947272325232878E+06, -1.055932920566107E+01, -1.847417973683808E+01, -9.962523263383067E-01,  8.307198914281724E+02,  2.490435581607449E+08, -1.477664737496654E+00,
2458013.500000000, A.D. 2017-Sep-17 00:00:00.0000, -2.082718859724914E+08,  1.363570029255045E+08,  7.937445300031483E+06, -1.076930029663052E+01, -1.685812313073513E+01, -7.204153748312807E-01,  8.307916785198606E+02,  2.490650793894148E+08, -2.469190761491150E-01,
2458014.500000000, A.D. 2017-Sep-18 00:00:00.0000, -2.093244124539054E+08,  1.347837827076387E+08,  7.929140917667165E+06, -1.206799726075657E+01, -1.617391418342635E+01,  1.460974712869945E-02,  8.308776229642370E+02,  2.490908448856459E+08,  1.390099038665973E+00,
2458015.500000000, A.D. 2017-Sep-19 00:00:00.0000, -2.103694086025133E+08,  1.332020338754994E+08,  7.923151236395739E+06, -1.342167144337149E+01, -1.702190687631265E+01,  6.798317579454318E-01,  8.309753548474463E+02,  2.491201441671381E+08,  2.254104658400752E+00,
2458016.500000000, A.D. 2017-Sep-20 00:00:00.0000, -2.114048416041156E+08,  1.316068470508450E+08,  7.918225834606476E+06, -1.374522864866692E+01, -1.883479096563294E+01,  7.951050468796810E-01,  8.310705588765337E+02,  2.491486856170298E+08,  1.739187392000039E+00,
2458017.500000000, A.D. 2017-Sep-21 00:00:00.0000, -2.124259779323322E+08,  1.299969482241980E+08,  7.912058666421182E+06, -1.276509161237771E+01, -2.039343738323382E+01,  3.067471615257915E-01,  8.311477766599708E+02,  2.491718349261277E+08,  2.527550800029095E-01,
2458018.500000000, A.D. 2017-Sep-22 00:00:00.0000, -2.134287929796886E+08,  1.283753337096076E+08,  7.902947369566508E+06, -1.107838328214310E+01, -2.076300052262496E+01, -4.430840729971299E-01,  8.312008489401578E+02,  2.491877455954566E+08, -1.222021645615446E+00,
2458019.500000000, A.D. 2017-Sep-23 00:00:00.0000, -2.144123950755427E+08,  1.267471149885768E+08,  7.890809280690402E+06, -9.670930757524005E+00, -1.978509149545040E+01, -9.761243235608594E-01,  8.312359105371496E+02,  2.491982567978002E+08, -1.773039093659792E+00,
2458020.500000000, A.D. 2017-Sep-24 00:00:00.0000, -2.153794572691646E+08,  1.251164232626345E+08,  7.877193423618831E+06, -9.373860276205725E+00, -1.812352753285504E+01, -9.386879183391725E-01,  8.312674258685537E+02,  2.492077048564665E+08, -1.027288580227298E+00,
2458021.500000000, A.D. 2017-Sep-25 00:00:00.0000, -2.163346530050596E+08,  1.234837726235169E+08,  7.864374545720175E+06, -1.034729620796361E+01, -1.696158142259419E+01, -3.278841902462419E-01,  8.313095367654957E+02,  2.492203293857693E+08,  5.674499637983623E-01,
2458022.500000000, A.D. 2017-Sep-26 00:00:00.0000, -2.172815036386784E+08,  1.218454180735263E+08,  7.853816752251975E+06, -1.182336216379526E+01, -1.723452365260007E+01,  4.336146219816222E-01,  8.313662012215091E+02,  2.492373169623188E+08,  1.895605781691707E+00,
2458023.500000000, A.D. 2017-Sep-27 00:00:00.0000, -2.182195808544814E+08,  1.201959574171308E+08,  7.845005153983116E+06, -1.261082256182379E+01, -1.881086513733205E+01,  7.877679554629511E-01,  8.314274787560006E+02,  2.492556875050042E+08,  1.994411912089428E+00,
2458024.500000000, A.D. 2017-Sep-28 00:00:00.0000, -2.191447813154409E+08,  1.185324909264413E+08,  7.835832773179963E+06, -1.207554977324343E+01, -2.059813683349455E+01,  5.004153312628068E-01,  8.314769192875299E+02,  2.492705094034762E+08,  8.371083220218485E-01,
